{"fetched_at":"2026-03-30T06:02:59Z","count":15439,"tles":[{"name":"LEMUR-2-JIN-LUEN","line1":"1 43182U 18014C   26087.79182975  .00658614  17900-3  18991-2 0  9993","line2":"2 43182  97.5392  20.0114 0009868 141.8360 218.3615 15.92980067448499","category":"Other"}]}